COSMOS 2151             
1 21422U 91042A   25336.28105419  .00001987  00000+0  15901-3 0  9999
2 21422  82.4963 177.5813 0013455  34.0966 326.1119 14.99624474848590
SL-14 R/B               
1 21423U 91042B   25336.04467699  .00000565  00000+0  68614-4 0  9996
2 21423  82.4918 311.7532 0016500 196.9733 163.0932 14.81722415838613
ERS-1                   
1 21574U 91050A   25336.30962423  .00000477  00000+0  16743-3 0  9993
2 21574  98.7911 347.1035 0032791 130.0807 230.3263 14.39351768801724
ARIANE 40 R/B           
1 21610U 91050F   25336.17596540  .00000437  00000+0  14354-3 0  9994
2 21610  98.2180  26.9870 0003431  29.8121 330.3264 14.42798519804931
INTERCOSMOS 25          
1 21819U 91086A   25336.15014118  .00002778  00000+0  55050-3 0  9996
2 21819  82.6068   8.9799 1487138 327.2428  24.4331 12.11666990484874
SL-8 R/B                
1 21876U 92008B   25336.13646947  .00000174  00000+0  16273-3 0  9995
2 21876  82.9263 340.3342 0035736  48.7968  18.2549 13.75955478696005
SL-8 R/B                
1 21938U 92020B   25336.23862492  .00000079  00000+0  66621-4 0  9991
2 21938  82.9314 226.1146 0028239 207.8664 301.0814 13.75524670687739
USA 81                  
1 21949U 92023A   25336.06603479  .00000226  00000+0  76228-4 0  9993
2 21949  85.0089 187.7316 0001892  63.0775 297.0611 14.32320651 80818
COSMOS 2219             
1 22219U 92076A   25336.18445388 -.00000236  00000+0 -98957-4 0  9994
2 22219  71.0594 221.8969 0018822 341.4262  18.6171 14.14064254704594
SL-16 R/B               
1 22220U 92076B   25336.26892465  .00000106  00000+0  76950-4 0  9990
2 22220  71.0017  33.5885 0015070 248.0096 176.3623 14.16840981708038
COSMOS 2221             
1 22236U 92080A   25336.18093955  .00002578  00000+0  22893-3 0  9991
2 22236  82.5052  12.4318 0015303 154.7600 205.4373 14.95695699766212
SL-16 R/B               
1 22285U 92093B   25336.14340938 -.00000157  00000+0 -56278-4 0  9999
2 22285  71.0202 209.0390 0001938 104.2137 255.9201 14.15425743699357
