CCSDS_OMM_VERS = 2.0
CREATION_DATE  = 
ORIGINATOR     = 

OBJECT_NAME    = COSMOS 2151
OBJECT_ID      = 1991-042A
CENTER_NAME    = EARTH
REF_FRAME      = TEME
TIME_SYSTEM    = UTC
MEAN_ELEMENT_THEORY = SGP/SGP4

EPOCH          = 2025-12-02T06:44:43.082016
MEAN_MOTION    = 14.99624474
ECCENTRICITY   = .00134559
INCLINATION    = 82.4963
RA_OF_ASC_NODE = 177.5813
ARG_OF_PERICENTER = 34.0966
MEAN_ANOMALY   = 326.1119

EPHEMERIS_TYPE = 0
CLASSIFICATION_TYPE = U
NORAD_CAT_ID   = 21422
ELEMENT_SET_NO = 999
REV_AT_EPOCH   = 84859
BSTAR          = .15900899E-3
MEAN_MOTION_DOT = .1987E-4
MEAN_MOTION_DDOT = 0

CCSDS_OMM_VERS = 2.0
CREATION_DATE  = 
ORIGINATOR     = 

OBJECT_NAME    = SL-14 R/B
OBJECT_ID      = 1991-042B
CENTER_NAME    = EARTH
REF_FRAME      = TEME
TIME_SYSTEM    = UTC
MEAN_ELEMENT_THEORY = SGP/SGP4

EPOCH          = 2025-12-02T01:04:20.091936
MEAN_MOTION    = 14.81722415
ECCENTRICITY   = .00165007
INCLINATION    = 82.4918
RA_OF_ASC_NODE = 311.7532
ARG_OF_PERICENTER = 196.9733
MEAN_ANOMALY   = 163.0932

EPHEMERIS_TYPE = 0
CLASSIFICATION_TYPE = U
NORAD_CAT_ID   = 21423
ELEMENT_SET_NO = 999
REV_AT_EPOCH   = 83861
BSTAR          = .68614126E-4
MEAN_MOTION_DOT = .565E-5
MEAN_MOTION_DDOT = 0

CCSDS_OMM_VERS = 2.0
CREATION_DATE  = 
ORIGINATOR     = 

OBJECT_NAME    = ERS-1
OBJECT_ID      = 1991-050A
CENTER_NAME    = EARTH
REF_FRAME      = TEME
TIME_SYSTEM    = UTC
MEAN_ELEMENT_THEORY = SGP/SGP4

EPOCH          = 2025-12-02T07:25:51.533472
MEAN_MOTION    = 14.39351768
ECCENTRICITY   = .00327916
INCLINATION    = 98.7911
RA_OF_ASC_NODE = 347.1035
ARG_OF_PERICENTER = 130.0807
MEAN_ANOMALY   = 230.3263

EPHEMERIS_TYPE = 0
CLASSIFICATION_TYPE = U
NORAD_CAT_ID   = 21574
ELEMENT_SET_NO = 999
REV_AT_EPOCH   = 80172
BSTAR          = .16742642E-3
MEAN_MOTION_DOT = .477E-5
MEAN_MOTION_DDOT = 0

CCSDS_OMM_VERS = 2.0
CREATION_DATE  = 
ORIGINATOR     = 

OBJECT_NAME    = ARIANE 40 R/B
OBJECT_ID      = 1991-050F
CENTER_NAME    = EARTH
REF_FRAME      = TEME
TIME_SYSTEM    = UTC
MEAN_ELEMENT_THEORY = SGP/SGP4

EPOCH          = 2025-12-02T04:13:23.410560
MEAN_MOTION    = 14.42798519
ECCENTRICITY   = .00034317
INCLINATION    = 98.2180
RA_OF_ASC_NODE = 26.9870
ARG_OF_PERICENTER = 29.8121
MEAN_ANOMALY   = 330.3264

EPHEMERIS_TYPE = 0
CLASSIFICATION_TYPE = U
NORAD_CAT_ID   = 21610
ELEMENT_SET_NO = 999
REV_AT_EPOCH   = 80493
BSTAR          = .14353678E-3
MEAN_MOTION_DOT = .437E-5
MEAN_MOTION_DDOT = 0

CCSDS_OMM_VERS = 2.0
CREATION_DATE  = 
ORIGINATOR     = 

OBJECT_NAME    = INTERCOSMOS 25
OBJECT_ID      = 1991-086A
CENTER_NAME    = EARTH
REF_FRAME      = TEME
TIME_SYSTEM    = UTC
MEAN_ELEMENT_THEORY = SGP/SGP4

EPOCH          = 2025-12-02T03:36:12.197952
MEAN_MOTION    = 12.11666990
ECCENTRICITY   = .14871388
INCLINATION    = 82.6068
RA_OF_ASC_NODE = 8.9799
ARG_OF_PERICENTER = 327.2428
MEAN_ANOMALY   = 24.4331

EPHEMERIS_TYPE = 0
CLASSIFICATION_TYPE = U
NORAD_CAT_ID   = 21819
ELEMENT_SET_NO = 999
REV_AT_EPOCH   = 48487
BSTAR          = .55049527E-3
MEAN_MOTION_DOT = .2778E-4
MEAN_MOTION_DDOT = 0

CCSDS_OMM_VERS = 2.0
CREATION_DATE  = 
ORIGINATOR     = 

OBJECT_NAME    = SL-8 R/B
OBJECT_ID      = 1992-008B
CENTER_NAME    = EARTH
REF_FRAME      = TEME
TIME_SYSTEM    = UTC
MEAN_ELEMENT_THEORY = SGP/SGP4

EPOCH          = 2025-12-02T03:16:30.962208
MEAN_MOTION    = 13.75955478
ECCENTRICITY   = .0035736
INCLINATION    = 82.9263
RA_OF_ASC_NODE = 340.3342
ARG_OF_PERICENTER = 48.7968
MEAN_ANOMALY   = 18.2549

EPHEMERIS_TYPE = 0
CLASSIFICATION_TYPE = U
NORAD_CAT_ID   = 21876
ELEMENT_SET_NO = 999
REV_AT_EPOCH   = 69600
BSTAR          = .16272885E-3
MEAN_MOTION_DOT = .174E-5
MEAN_MOTION_DDOT = 0

CCSDS_OMM_VERS = 2.0
CREATION_DATE  = 
ORIGINATOR     = 

OBJECT_NAME    = SL-8 R/B
OBJECT_ID      = 1992-020B
CENTER_NAME    = EARTH
REF_FRAME      = TEME
TIME_SYSTEM    = UTC
MEAN_ELEMENT_THEORY = SGP/SGP4

EPOCH          = 2025-12-02T05:43:37.193088
MEAN_MOTION    = 13.75524670
ECCENTRICITY   = .0028239
INCLINATION    = 82.9314
RA_OF_ASC_NODE = 226.1146
ARG_OF_PERICENTER = 207.8664
MEAN_ANOMALY   = 301.0814

EPHEMERIS_TYPE = 0
CLASSIFICATION_TYPE = U
NORAD_CAT_ID   = 21938
ELEMENT_SET_NO = 999
REV_AT_EPOCH   = 68773
BSTAR          = .66621098E-4
MEAN_MOTION_DOT = .79E-6
MEAN_MOTION_DDOT = 0

CCSDS_OMM_VERS = 2.0
CREATION_DATE  = 
ORIGINATOR     = 

OBJECT_NAME    = USA 81
OBJECT_ID      = 1992-023A
CENTER_NAME    = EARTH
REF_FRAME      = TEME
TIME_SYSTEM    = UTC
MEAN_ELEMENT_THEORY = SGP/SGP4

EPOCH          = 2025-12-02T01:35:05.405856
MEAN_MOTION    = 14.32320651
ECCENTRICITY   = .0001892
INCLINATION    = 85.0089
RA_OF_ASC_NODE = 187.7316
ARG_OF_PERICENTER = 63.0775
MEAN_ANOMALY   = 297.0611

EPHEMERIS_TYPE = 0
CLASSIFICATION_TYPE = U
NORAD_CAT_ID   = 21949
ELEMENT_SET_NO = 999
REV_AT_EPOCH   = 8081
BSTAR          = .76227872E-4
MEAN_MOTION_DOT = .226E-5
MEAN_MOTION_DDOT = 0

CCSDS_OMM_VERS = 2.0
CREATION_DATE  = 
ORIGINATOR     = 

OBJECT_NAME    = COSMOS 2219
OBJECT_ID      = 1992-076A
CENTER_NAME    = EARTH
REF_FRAME      = TEME
TIME_SYSTEM    = UTC
MEAN_ELEMENT_THEORY = SGP/SGP4

EPOCH          = 2025-12-02T04:25:36.815232
MEAN_MOTION    = 14.14064254
ECCENTRICITY   = .00188221
INCLINATION    = 71.0594
RA_OF_ASC_NODE = 221.8969
ARG_OF_PERICENTER = 341.4262
MEAN_ANOMALY   = 18.6171

EPHEMERIS_TYPE = 0
CLASSIFICATION_TYPE = U
NORAD_CAT_ID   = 22219
ELEMENT_SET_NO = 999
REV_AT_EPOCH   = 70459
BSTAR          = -.98956636E-4
MEAN_MOTION_DOT = -.236E-5
MEAN_MOTION_DDOT = 0

CCSDS_OMM_VERS = 2.0
CREATION_DATE  = 
ORIGINATOR     = 

OBJECT_NAME    = SL-16 R/B
OBJECT_ID      = 1992-076B
CENTER_NAME    = EARTH
REF_FRAME      = TEME
TIME_SYSTEM    = UTC
MEAN_ELEMENT_THEORY = SGP/SGP4

EPOCH          = 2025-12-02T06:27:15.089760
MEAN_MOTION    = 14.16840981
ECCENTRICITY   = .00150709
INCLINATION    = 71.0017
RA_OF_ASC_NODE = 33.5885
ARG_OF_PERICENTER = 248.0096
MEAN_ANOMALY   = 176.3623

EPHEMERIS_TYPE = 0
CLASSIFICATION_TYPE = U
NORAD_CAT_ID   = 22220
ELEMENT_SET_NO = 999
REV_AT_EPOCH   = 70803
BSTAR          = .76949943E-4
MEAN_MOTION_DOT = .106E-5
MEAN_MOTION_DDOT = 0

CCSDS_OMM_VERS = 2.0
CREATION_DATE  = 
ORIGINATOR     = 

OBJECT_NAME    = COSMOS 2221
OBJECT_ID      = 1992-080A
CENTER_NAME    = EARTH
REF_FRAME      = TEME
TIME_SYSTEM    = UTC
MEAN_ELEMENT_THEORY = SGP/SGP4

EPOCH          = 2025-12-02T04:20:33.177120
MEAN_MOTION    = 14.95695699
ECCENTRICITY   = .00153037
INCLINATION    = 82.5052
RA_OF_ASC_NODE = 12.4318
ARG_OF_PERICENTER = 154.7600
MEAN_ANOMALY   = 205.4373

EPHEMERIS_TYPE = 0
CLASSIFICATION_TYPE = U
NORAD_CAT_ID   = 22236
ELEMENT_SET_NO = 999
REV_AT_EPOCH   = 76621
BSTAR          = .22893489E-3
MEAN_MOTION_DOT = .2578E-4
MEAN_MOTION_DDOT = 0

CCSDS_OMM_VERS = 2.0
CREATION_DATE  = 
ORIGINATOR     = 

OBJECT_NAME    = SL-16 R/B
OBJECT_ID      = 1992-093B
CENTER_NAME    = EARTH
REF_FRAME      = TEME
TIME_SYSTEM    = UTC
MEAN_ELEMENT_THEORY = SGP/SGP4

EPOCH          = 2025-12-02T03:26:30.570432
MEAN_MOTION    = 14.15425743
ECCENTRICITY   = .00019386
INCLINATION    = 71.0202
RA_OF_ASC_NODE = 209.0390
ARG_OF_PERICENTER = 104.2137
MEAN_ANOMALY   = 255.9201

EPHEMERIS_TYPE = 0
CLASSIFICATION_TYPE = U
NORAD_CAT_ID   = 22285
ELEMENT_SET_NO = 999
REV_AT_EPOCH   = 69935
BSTAR          = -.56277572E-4
MEAN_MOTION_DOT = -.157E-5
MEAN_MOTION_DDOT = 0

